0 FENGYUN 1C DEB
1 31514U 99025BXD 13281.01997922  .00001917  00000-0  12446-2 0  6717
2 31514 099.2442 351.3230 0066125 267.2829 215.5447 14.02813850329025
0 FENGYUN 1C DEB
1 31514U 99025BXD 13283.43292946  .00002072  00000-0  13424-2 0  6720
2 31514 099.2450 353.7718 0066395 260.6800 161.2544 14.02827551329361
0 FENGYUN 1C DEB
1 31514U 99025BXD 13285.66289213  .00002107  00000-0  13641-2 0  6731
2 31514 099.2452 356.0353 0066642 254.5673 262.9602 14.02835801329674
0 FENGYUN 1C DEB
1 31514U 99025BXD 13290.42202667  .00002390  00000-0  15420-2 0  6741
2 31514 099.2448 000.8668 0066966 241.6202 177.6108 14.02862474330341
